OBJECT_NAME,OBJECT_ID,EPOCH,MEAN_MOTION,ECCENTRICITY,INCLINATION,RA_OF_ASC_NODE,ARG_OF_PERICENTER,MEAN_ANOMALY,EPHEMERIS_TYPE,CLASSIFICATION_TYPE,NORAD_CAT_ID,ELEMENT_SET_NO,REV_AT_EPOCH,BSTAR,MEAN_MOTION_DOT,MEAN_MOTION_DDOT
FOX-1CLIFF (AO-95),2018-099N,2026-07-13T16:23:35.193408,15.27253452,.0007145,97.4375,254.8390,246.2412,113.8077,0,U,43770,999,41726,.23179E-3,.6119E-4,0
RANGE-A,2018-099R,2026-07-13T16:33:15.195744,15.13600429,.0008599,97.3954,236.4947,251.2531,108.7768,0,U,43773,999,41650,.12637E-3,.2206E-4,0
SNUSAT-2,2018-099AA,2026-07-13T15:08:14.459424,15.22224857,.0010071,97.4048,247.6122,193.2269,166.8705,0,U,43782,999,41705,.21688E-3,.4921E-4,0
SNUGLITE,2018-099AC,2026-07-13T16:12:24.218784,15.27737175,.000347,97.3858,248.7017,163.6611,196.4741,0,U,43784,999,41736,.24731E-3,.6629E-4,0
ITASAT,2018-099AE,2026-07-13T15:09:02.630016,15.19370289,.0010808,97.4017,245.6182,256.6062,103.3968,0,U,43786,999,41692,.18775E-3,.3908E-4,0
EAGLET-I,2018-099AJ,2026-07-12T13:56:11.717952,15.13122395,.0009508,97.4222,242.5773,254.7473,105.2707,0,U,43790,999,41617,.11153E-3,.1913E-4,0
ESEO,2018-099AL,2026-07-13T14:07:03.477216,15.04317800,.0010885,97.3955,230.8446,239.9765,120.0383,0,U,43792,999,41577,.106E-3,.142E-4,0
THEA,2018-099AQ,2026-07-13T17:25:17.696064,15.35903376,.000789,97.4436,264.6906,179.0906,181.0353,0,U,43796,999,41676,.30985E-3,.10759E-3,0
ASTROCAST 0.1,2018-099AS,2026-07-13T18:53:04.490592,15.51384541,.0005721,97.4375,274.1474,134.4275,225.7446,0,U,43798,999,41855,.3874E-3,.22749E-3,0
JY1SAT (JO-97),2018-099AX,2026-07-13T17:00:38.490048,15.34488293,.0006676,97.4122,257.6480,162.6699,197.4773,0,U,43803,999,41769,.309E-3,.10252E-3,0
SUOMI-100,2018-099AY,2026-07-13T17:11:10.597632,15.29010197,.0010406,97.4178,255.0189,177.0817,183.0486,0,U,43804,999,41747,.27531E-3,.7692E-4,0
CENTAURI-1,2018-099BD,2026-07-13T15:58:16.356576,15.16615743,.0012821,97.4209,245.8180,230.6125,129.3974,0,U,43809,999,41651,.14019E-3,.2678E-4,0
GLOBAL-2,2018-099BG,2026-07-13T14:29:18.269952,15.08819838,.0007459,97.3544,230.0186,71.6172,288.5867,0,U,43812,999,41589,.8645E-4,.13E-4,0
SEAHAWK-1,2018-099BQ,2026-07-13T16:18:32.164416,15.23223646,.0007719,97.3948,246.7657,203.9464,156.1415,0,U,43820,999,41656,.21923E-3,.5122E-4,0
SAUDISAT 5A,2018-102A,2026-07-13T21:07:46.675776,15.28313016,.0010546,97.3056,255.9490,47.9039,312.3096,0,U,43831,999,41975,.11945E-3,.3225E-4,0
SAUDISAT 5B,2018-102C,2026-07-13T19:54:21.650400,15.28556101,.0011329,97.3166,259.0169,49.5381,310.6845,0,U,43833,999,41986,.11272E-3,.3062E-4,0
ISAT,2018-111D,2026-07-13T18:37:40.821024,15.70609178,.0007696,97.5860,132.1476,142.6470,217.5329,0,U,43879,999,41533,.609E-3,.75476E-3,0
UWE-4,2018-111E,2026-07-13T19:13:02.850816,15.47760123,.0005951,97.5848,124.4503,200.2503,159.8511,0,U,43880,999,41489,.38928E-3,.20115E-3,0
D-STAR ONE (SPARROW),2018-111F,2026-07-13T19:26:10.252896,15.84445843,.0007929,97.6079,138.3734,141.3804,218.8034,0,U,43881,999,41557,.75834E-3,.175648E-2,0
JILIN-1 09,2019-005B,2026-07-13T19:56:17.536128,15.20734174,.0002453,97.4749,289.5699,39.6247,320.5167,0,U,43943,999,41319,.11844E-3,.2536E-4,0
JILIN-1 10,2019-005E,2026-07-13T19:36:41.023008,15.25997779,.0008458,97.4800,293.6271,174.3122,185.8214,0,U,43946,999,41337,.14005E-3,.3529E-4,0
EGYPTSAT-A (MISRSAT-A),2019-008A,2026-07-13T20:26:41.333856,14.72334462,.0001721,98.0190,259.2545,94.0854,266.0550,0,U,44047,999,39716,.65017E-5,-.8E-7,0
EMISAT,2019-018A,2026-07-13T19:52:43.258944,14.43648416,.0019277,98.4642,253.4799,135.0756,225.1998,0,U,44078,999,38390,.64209E-5,-.22E-6,0
JILIN-1 GAOFEN 3A,2019-032C,2026-07-13T11:27:39.393792,15.33168266,.00047103,44.9725,212.1831,91.3248,268.8176,0,U,44312,999,39187,.18755809E-3,.582E-4,0
WT 1B,2019-032G,2026-07-13T16:28:29.267904,15.27708959,.000846,44.9741,276.2400,26.7734,333.3584,0,U,44316,999,39113,.2514E-3,.6648E-4,0
PROX-1,2019-036A,2026-07-13T10:14:29.562720,14.91225199,.00058614,23.9956,298.8895,348.2217,11.8145,0,U,44339,999,37739,.66459225E-3,.7059E-4,0
NPSAT1,2019-036B,2026-07-13T18:40:17.103072,14.74814175,.0007457,23.9996,44.5394,150.7569,209.3345,0,U,44340,999,37642,.40076E-3,.2994E-4,0
FORMOSAT 7-3,2019-036E,2026-07-13T19:34:51.562848,15.09988930,.0000286,24.0002,355.2413,203.5669,156.4822,0,U,44343,999,38727,.14882E-3,.2826E-4,0
FORMOSAT 7-1,2019-036L,2026-07-13T09:12:20.850624,14.96608288,.0001031,23.9965,215.7720,114.5702,245.4906,0,U,44349,999,38858,.91126006E-4,.1367E-4,0
